COSMOS 2600             
1 67674U 26023A   26040.39062725  .00073238  00000+0  36830-3 0  9994
2 67674  96.6502 116.9246 0002105  71.3370 288.8129 15.81491193   570
2026-023B               
1 67675U 26023B   26037.83165961  .00002946  00000+0  13032-3 0  9993
2 67675  96.6397 114.3547 0017219 239.3232 120.6310 15.22205300   162
2026-023C               
1 67676U 26023C   26037.83163995  .00006231  00000+0  27219-3 0  9992
2 67676  96.6444 114.3671 0018177 231.2308 128.7307 15.22258115   159
2026-023D               
1 67677U 26023D   26037.83169507  .00006190  00000+0  27117-3 0  9999
2 67677  96.6468 114.3470 0018532 236.3918 123.5552 15.22159024   155
2026-023E               
1 67678U 26023E   26037.83165436  .00006205  00000+0  27128-3 0  9996
2 67678  96.6374 114.3623 0018163 237.2347 122.7142 15.22227869   157
2026-023F               
1 67679U 26023F   26037.83150241  .00006457  00000+0  28069-3 0  9999
2 67679  96.6417 116.8559 0020898 224.4168 135.5395 15.22365211   143
2026-023G               
1 67680U 26023G   26038.81744600  .00004315  00000+0  18946-3 0  9992
2 67680  96.6263 117.7523 0019658 223.6722 136.2962 15.22204274   299
2026-023H               
1 67681U 26023H   26037.83153515  .00006451  00000+0  28069-3 0  9993
2 67681  96.6335 116.8614 0021555 226.9356 133.0079 15.22318667   149
2026-023J               
1 67682U 26023J   26037.83150012  .00006460  00000+0  28055-3 0  9998
2 67682  96.6412 116.8562 0021119 228.0113 131.9327 15.22391354   145
ISS OBJECT XZ           
1 67683U 98067XZ  26040.50006891  .00038567  00000+0  69003-3 0  9990
2 67683  51.6303 211.6680 0010999  95.7419 264.4824 15.49543181   413
GXIBA-1                 
1 67684U 98067YA  26040.49883205  .00073979  00000+0  12860-2 0  9995
2 67684  51.6301 211.6615 0012902  90.8493 269.3974 15.50049128   418
LEOPARD                 
1 67685U 98067YB  26040.49978844  .00045063  00000+0  80061-3 0  9992
2 67685  51.6304 211.6663 0012930  91.3288 268.9182 15.49645534   411
